[{"OBJECT_NAME":"MUSAT-2","OBJECT_ID":"2024-043B","EPOCH":"2026-03-09T22:04:01.255008","MEAN_MOTION":15.07177436,"ECCENTRICITY":0.0006495,"INCLINATION":97.8438,"RA_OF_ASC_NODE":205.4399,"ARG_OF_PERICENTER":314.3478,"MEAN_ANOMALY":45.7216,"EPHEMERIS_TYPE":0,"CLASSIFICATION_TYPE":"U","NORAD_CAT_ID":59099,"ELEMENT_SET_NO":999,"REV_AT_EPOCH":11013,"BSTAR":0.00067214198,"MEAN_MOTION_DOT":0.00010059,"MEAN_MOTION_DDOT":0},{"OBJECT_NAME":"STARLINK-35344","OBJECT_ID":"2025-211E","EPOCH":"2026-03-09T17:12:04.491360","MEAN_MOTION":15.05640282,"ECCENTRICITY":9.225e-5,"INCLINATION":97.603,"RA_OF_ASC_NODE":114.0558,"ARG_OF_PERICENTER":101.1467,"MEAN_ANOMALY":258.9864,"EPHEMERIS_TYPE":0,"CLASSIFICATION_TYPE":"U","NORAD_CAT_ID":65656,"ELEMENT_SET_NO":999,"REV_AT_EPOCH":2704,"BSTAR":0.00013428472,"MEAN_MOTION_DOT":1.877e-5,"MEAN_MOTION_DDOT":0}]
